GLOBALSTAR M023         
1 25621U 99004A   25070.52759898  .00000049  00000+0  85067-3 0  9996
2 25621  52.0136 350.8187 0009424 273.3052 257.8774 12.62499824203392
GLOBALSTAR M040         
1 25622U 99004B   25070.54393130 -.00000012  00000+0  51205-3 0  9990
2 25622  51.9947 354.7770 0000803 138.3055  33.1476 12.62004219202929
GLOBALSTAR M036         
1 25623U 99004C   25070.60041928 -.00000083  00000+0  11108-5 0  9991
2 25623  51.9954 137.5384 0011191 224.0151 285.0678 11.86590527167398
GLOBALSTAR M038         
1 25624U 99004D   25070.23429808 -.00000071  00000+0  20210-3 0  9997
2 25624  52.0005 353.6648 0001412 195.8348 320.3195 12.32521811190250
GLOBALSTAR M022         
1 25649U 99012A   25070.64388164 -.00000065  00000+0  26244-3 0  9993
2 25649  52.0030 196.0684 0001950 355.5926  17.9711 12.02497114164640
GLOBALSTAR M041         
1 25650U 99012B   25070.49147553 -.00000111  00000+0 -33748-3 0  9993
2 25650  52.0018  74.9558 0001809 121.4081 238.6932 11.96668746166830
GLOBALSTAR M046         
1 25651U 99012C   25070.47922833 -.00000209  00000+0 -13279-2 0  9998
2 25651  52.0044 150.2169 0002433  72.4101 301.0453 12.09406785171846
GLOBALSTAR M037         
1 25652U 99012D   25070.57696299 -.00000060  00000+0  24273-3 0  9995
2 25652  51.9990 121.3222 0001573 337.8297 175.5336 12.62438546198945
